[{"OBJECT_NAME":"GAOFEN-9 05","OBJECT_ID":"2020-058A","EPOCH":"2026-03-10T00:01:50.876256","MEAN_MOTION":15.30293976,"ECCENTRICITY":0.0010522,"INCLINATION":97.2228,"RA_OF_ASC_NODE":111.963,"ARG_OF_PERICENTER":91.0204,"MEAN_ANOMALY":269.2242,"EPHEMERIS_TYPE":0,"CLASSIFICATION_TYPE":"U","NORAD_CAT_ID":46232,"ELEMENT_SET_NO":999,"REV_AT_EPOCH":30843,"BSTAR":0.00025120304,"MEAN_MOTION_DOT":7.299e-5,"MEAN_MOTION_DDOT":0},{"OBJECT_NAME":"STARLINK-31887","OBJECT_ID":"2024-097E","EPOCH":"2026-03-08T23:26:28.880160","MEAN_MOTION":15.27564903,"ECCENTRICITY":0.00011477,"INCLINATION":43.003,"RA_OF_ASC_NODE":278.7371,"ARG_OF_PERICENTER":262.3895,"MEAN_ANOMALY":97.6826,"EPHEMERIS_TYPE":0,"CLASSIFICATION_TYPE":"U","NORAD_CAT_ID":59839,"ELEMENT_SET_NO":999,"REV_AT_EPOCH":10180,"BSTAR":2.5548016e-5,"MEAN_MOTION_DOT":4.41e-6,"MEAN_MOTION_DDOT":0}]
